#dP2024 11 17 12  0  0.00000000      96 __u+U IGS20 EXT  IAC
## 2341  43200.00000000   900.00000000 60631 0.5000000000000
+   51   G02G03G04G05G06G07G08G09G10G11G12G13G14G15G16G17G18
+        G19G20G21G22G23G24G25G26G27G28G29G30G31G32R01R03R04
+        R05R07R08R09R11R12R14R15R16R17R18R19R20R21R22R24R26
+          0  0  0  0  0  0  0  0  0  0  0  0  0  0  0  0  0
+          0  0  0  0  0  0  0  0  0  0  0  0  0  0  0  0  0
++         7  8  8  8  6  7  7  8  7  7  8  7  7  7  6  7  6
++         0  7  7  6  8  8  7  8  7  8  8  7  7  7  7  6  8
++         7  8  7  7  9  9  8  7  7  9  7  8  7  6  7  7  7
++         0  0  0  0  0  0  0  0  0  0  0  0  0  0  0  0  0
++         0  0  0  0  0  0  0  0  0  0  0  0  0  0  0  0  0
%c M  cc GPS ccc cccc cccc cccc cccc ccccc ccccc ccccc ccccc
%c cc cc ccc ccc cccc cccc cccc cccc ccccc ccccc ccccc ccccc
%f  0.0000000  0.000000000  0.00000000000  0.000000000000000
%f  0.0000000  0.000000000  0.00000000000  0.000000000000000
%i    0    0    0    0      0      0      0      0         0
%i    0    0    0    0      0      0      0      0         0
/* IAC                                ULTRA-RAPID PREDICTION
/* S/V CLOCKS ARE ALIGNED TO GNSS TIME                      
/* G:C1WC2W R:C1PC2P E:C1XC5X C:C2IC6I J:C1CC2S             
/* PCV:IGS20_2317 OL/AL:FES2004  NONE     YN ORB:CoN CLK:CoN
*  2024 11 17 15 30  0.00000000
PG02 -18888.475828  -7143.944168  17907.155503   -312.472751
PG03 -18292.304231   5892.660410  18118.030495    602.323521
PG04 -26463.409602   -353.137726  -3050.704729    481.046930
PG05  11393.175465  10038.498917 -21965.207451   -193.283996
PG06   3722.977418  23992.147973  10707.228293   -121.786319
PG07 -12094.898275   9506.807079 -21080.931608    -19.620989
PG08 -24456.203979  -6729.983503  -8729.811385    416.008156
PG09 -22724.413671   7470.468494 -11704.711004    447.842832
PG10   8924.862279 -23463.535428   8348.058829   -199.372246
PG11  12487.062172  23309.439064  -2787.332709   -750.440397
PG12  17577.661301   -522.257740  19605.169430   -552.679236
PG13  18169.668099  13600.061719 -14223.842184    686.406303
PG14 -12066.307415  23114.932363   4396.130820    541.737581
PG15  24982.124964   4021.700613  -8842.017259    228.887874
PG16  -7044.813116 -14868.302867 -21107.997943   -126.015909
PG17  -8893.849289  13791.652277  21337.028576    555.086525
PG18  10488.346587 -11685.469763 -21356.247654   -660.418746
PG19   3151.730014  15445.123084  21292.527886    563.829456
PG20   4281.455149  20148.700868 -16766.853594    368.659016
PG21 -19484.912903 -13492.584628  13409.931272     97.235515
PG22  -6991.724527  22783.491806  12436.820263    -80.096862
PG23  16618.735009 -19793.856037  -5527.514742    365.171927
PG24  19395.413105   9430.989674  15297.495993   -479.708095
PG25  18773.701153 -14322.940365  11541.006286    498.935644
PG26    437.306992 -22547.945601 -13895.179287     22.983697
PG27 -16263.596087 -12825.463372 -17164.376647    -34.690569
PG28  -2857.681128 -23345.092553  12324.090876   -481.792711
PG29  23702.145450  -4621.376594 -11243.087064   -563.090777
PG30  -3951.061345  19855.299166 -16907.769660   -280.021823
PG31 -10140.858178 -24245.959030   1743.469370   -221.597122
PG32   4658.703110 -14887.176370  21696.397849   -572.423733
PR01 -22564.580054   1868.494109  11739.088477    104.717605
PR03 -10362.271875  12749.325941 -19495.566492    111.540787
PR04   7448.656554   8720.323578 -22757.238926    264.394441
PR05  21398.891769    336.653366 -13848.699981    140.833107
PR07   9788.368208 -12719.520020  19841.124341     95.163083
PR08  -7886.874178  -8665.889686  22718.158464     -6.253744
PR09  11559.680472 -14748.851915  17366.007134    221.079289
PR11  -1650.411491 -21847.476309 -13069.975556      6.719009
PR12 -10227.897092  -4589.777087 -22891.359166     47.340989
PR14  -6285.939543  24612.622456  -2198.735332     27.240328
PR15   2542.939882  20830.758479  14511.779816     74.015426
PR16  10062.980492   4696.468819  22967.462658     30.867175
PR17   2126.242575  14954.045831  20585.473478    140.685791
PR18  14487.216340  19217.920109   8413.224593    172.329399
PR19  19194.370936  15535.878863  -6406.852151   -298.792778
PR20  13014.358674   -696.417367 -21903.243425   -122.040565
PR21  -1124.273901 -14323.410937 -21059.511208   -152.096957
PR22 -14740.826439 -19571.196114  -7077.742343    -13.100721
PR24 -12959.483396   2091.540606  21891.199592    -80.506910
PR26  -6060.855055  -9323.923955  22971.519353   -133.466418
*  2024 11 17 15 45  0.00000000
PG02 -19806.383525  -8755.185441  16088.696056   -312.465037
PG03 -17226.062961   3979.064662  19618.652937    602.332677
PG04 -26635.976312   -592.754141   -201.481600    481.052736
PG05  10185.718857  12163.722966 -21469.145547   -193.285107
PG06   2961.496491  22860.642570  13165.654586   -121.812738
PG07 -13340.420211   7290.473908 -21248.899716    -19.619036
PG08 -23344.457346  -6963.144145 -11224.000125    416.017234
PG09 -23906.919940   7250.828198  -9205.755661    447.858205
PG10   9494.786666 -24022.354302   5569.352239   -199.385298
PG11  12344.408161  23555.735535     69.460014   -750.441763
PG12  16290.346122   1459.192069  20631.992674   -552.681503
PG13  16472.258829  13455.031969 -16290.589262    686.407724
PG14 -12515.274162  23231.397040   1586.083585    541.744803
PG15  23940.790196   4427.259956 -11315.863858    228.891948
PG16  -5599.987651 -16660.015891 -20125.012117   -126.007041
PG17 -11177.921095  13533.857252  20405.362376    555.073329
PG18  11670.358137  -9508.558219 -21837.237288   -660.419054
PG19    685.732832  15143.782713  21686.414331    563.833401
PG20   3460.646235  21779.026676 -14827.064218    368.658726
PG21 -20106.360350 -14654.855012  11088.062374     97.234692
PG22  -7872.098353  23650.230723   9999.539672    -80.099452
PG23  16395.340630 -19001.241432  -8291.543943    365.179058
PG24  20158.718804  10964.485751  13247.485486   -479.706075
PG25  18231.180877 -12886.104480  13834.001484    498.935391
PG26   1350.783306 -23719.768919 -11643.202924     22.971921
PG27 -14273.076588 -12913.582730 -18781.698075    -34.690518
PG28  -1906.247952 -22116.446082  14567.436367   -481.803248
PG29  24807.240434  -4311.403883  -8693.442389   -563.088194
PG30  -5116.806637  18136.678903 -18465.916949   -280.014783
PG31  -9691.719483 -24035.832152   4576.479694   -221.596488
PG32   7061.148983 -14792.680867  21079.393488   -572.418904
PR01 -21012.786655   1411.443815  14384.642340    104.718718
PR03 -12498.278236  13595.884348 -17587.390991    111.541386
PR04   4749.289061   9601.490069 -23124.487492    264.396014
PR05  19586.155861    791.740406 -16297.535369    140.833663
PR07  11960.261645 -13568.228187  17994.746209     95.163760
PR08  -5217.974137  -9561.839666  23122.294617     -6.253685
PR09  11154.480777 -12532.913509  19262.473425    221.081341
PR11  -1518.701055 -23290.166652 -10305.467102      6.718294
PR12  -9735.442627  -7344.253595 -22381.796642     47.341399
PR14  -6091.744740  24172.622695  -5353.857969     27.240399
PR15   2348.270430  22449.073819  11891.831072     74.015060
PR16   9582.535674   7455.851620  22433.817070     30.867467
PR17    208.948252  13171.726624  21868.746148    140.688855
PR18  13701.983345  18269.186167  11343.876180    172.331114
PR19  19772.003260  15795.674219  -3234.351909   -298.793983
PR20  14969.710618   1066.620277 -20598.790224   -122.040882
PR21    825.261154 -12489.540598 -22211.436981   -152.099886
PR22 -14059.511953 -18745.847231 -10056.594649    -13.111239
PR24 -14970.797290    410.189887  20666.866477    -80.508269
PR26  -3378.166991 -10259.940525  23124.567035   -133.466205
EOF
